STARLINK-2361           
1 47901U 21021AT  26068.71122616 -.00005554  00000+0 -17566-3 0  9993
2 47901  53.1601 255.2953 0001353  53.4820 306.6305 15.30175875276420
TEVEL2-1                
1 63217U 25052H   26068.64782323  .00020683  00000+0  70600-3 0  9994
2 63217  97.3991 324.7682 0004767 104.8919 255.2849 15.30341923 54855
